$$SOE
2459580.500000000, A.D. 2022-Jan-01 00:00:00.0000, -4.768709912767132E+08, 4.398605074269398E+07, -7.809919262841079E+07,
2459587.500000000, A.D. 2022-Jan-08 00:00:00.0000, -4.778081264909725E+08, 3.404643739548932E+07, -7.732776704595679E+07,
2459594.500000000, A.D. 2022-Jan-15 00:00:00.0000, -4.785422793505044E+08, 2.409236329106084E+07, -7.652348028638676E+07,
2459601.500000000, A.D. 2022-Jan-22 00:00:00.0000, -4.790731332522566E+08, 1.412805703165475E+07, -7.568667440223058E+07,
2459608.500000000, A.D. 2022-Jan-29 00:00:00.0000, -4.794004580353577E+08, 4.157754078812163E+06, -7.481770525787896E+07,
2459615.500000000, A.D. 2022-Feb-05 00:00:00.0000, -4.795241122857600E+08, -5.814305761188477E+06, -7.391694222777539E+07,
2459622.500000000, A.D. 2022-Feb-12 00:00:00.0000, -4.794440434314243E+08, -1.578388192065653E+07, -7.298476817454717E+07,
2459629.500000000, A.D. 2022-Feb-19 00:00:00.0000, -4.791602869512741E+08, -2.574673535162442E+07, -7.202157939148217E+07,
2459636.500000000, A.D. 2022-Feb-26 00:00:00.0000, -4.786729660078709E+08, -3.569863022703522E+07, -7.102778544788393E+07,
2459643.500000000, A.D. 2022-Mar-05 00:00:00.0000, -4.779822913439682E+08, -4.563533567819715E+07, -7.000380900243558E+07,
2459650.500000000, A.D. 2022-Mar-12 00:00:00.0000, -4.770885612205541E+08, -5.555262763347204E+07, -6.895008561042678E+07,
2459657.500000000, A.D. 2022-Mar-19 00:00:00.0000, -4.759921613249099E+08, -6.544629072973234E+07, -6.786706352932835E+07,
2459664.500000000, A.D. 2022-Mar-26 00:00:00.0000, -4.746935646265415E+08, -7.531212030217722E+07, -6.675520352579173E+07,
2459671.500000000, A.D. 2022-Apr-02 00:00:00.0000, -4.731933311139769E+08, -8.514592450757727E+07, -6.561497869554324E+07,
2459678.500000000, A.D. 2022-Apr-09 00:00:00.0000, -4.714921071411178E+08, -9.494352657483874E+07, -6.444687432129435E+07,
2459685.500000000, A.D. 2022-Apr-16 00:00:00.0000, -4.695906240262095E+08, -1.047007665273453E+08, -6.325138774827245E+07,
2459692.500000000, A.D. 2022-Apr-23 00:00:00.0000, -4.674896971719368E+08, -1.144135012917045E+08, -6.202902807248111E+07,
2459699.500000000, A.D. 2022-Apr-30 00:00:00.0000, -4.651902275769823E+08, -1.240776054378653E+08, -6.078031565394242E+07,
2459706.500000000, A.D. 2022-May-07 00:00:00.0000, -4.626932026778921E+08, -1.336889745237052E+08, -5.950578189771286E+07,
2459713.500000000, A.D. 2022-May-14 00:00:00.0000, -4.599996951327661E+08, -1.432435280041963E+08, -5.820596918199270E+07,
2459720.500000000, A.D. 2022-May-21 00:00:00.0000, -4.571108615771512E+08, -1.527372109448389E+08, -5.688143068477204E+07,
2459727.500000000, A.D. 2022-May-28 00:00:00.0000, -4.540279418305011E+08, -1.621659954975312E+08, -5.553273014343983E+07,
2459734.500000000, A.D. 2022-Jun-04 00:00:00.0000, -4.507522582766456E+08, -1.715258824512404E+08, -5.416044159861252E+07,
2459741.500000000, A.D. 2022-Jun-11 00:00:00.0000, -4.472852152744064E+08, -1.808129028543417E+08, -5.276514913549390E+07,
2459748.500000000, A.D. 2022-Jun-18 00:00:00.0000, -4.436282985601562E+08, -1.900231196940866E+08, -5.134744662527985E+07,
2459755.500000000, A.D. 2022-Jun-25 00:00:00.0000, -4.397830746131028E+08, -1.991526296651224E+08, -4.990793747197750E+07,
2459762.500000000, A.D. 2022-Jul-02 00:00:00.0000, -4.357511898494129E+08, -2.081975650916501E+08, -4.844723438224651E+07,
2459769.500000000, A.D. 2022-Jul-09 00:00:00.0000, -4.315343692550673E+08, -2.171540958251279E+08, -4.696595917952111E+07,
2459776.500000000, A.D. 2022-Jul-16 00:00:00.0000, -4.271344145125930E+08, -2.260184300335542E+08, -4.546474256873176E+07,
2459783.500000000, A.D. 2022-Jul-23 00:00:00.0000, -4.225532038197566E+08, -2.347868138037547E+08, -4.394422364349213E+07,
2459790.500000000, A.D. 2022-Jul-30 00:00:00.0000, -4.177926933165376E+08, -2.434555329105740E+08, -4.240504941764428E+07,
2459797.500000000, A.D. 2022-Aug-06 00:00:00.0000, -4.128549165232357E+08, -2.520209161046728E+08, -4.084787465845595E+07,
2459804.500000000, A.D. 2022-Aug-13 00:00:00.0000, -4.077419826138444E+08, -2.604793371631125E+08, -3.927336172065742E+07,
2459811.500000000, A.D. 2022-Aug-20 00:00:00.0000, -4.024560750937209E+08, -2.688272162046515E+08, -3.768218027814315E+07,
2459818.500000000, A.D. 2022-Aug-27 00:00:00.0000, -3.969994508130699E+08, -2.770610209956891E+08, -3.607500701881805E+07,
2459825.500000000, A.D. 2022-Sep-03 00:00:00.0000, -3.913744390687088E+08, -2.851772683573101E+08, -3.445252533446147E+07,
2459832.500000000, A.D. 2022-Sep-10 00:00:00.0000, -3.855834407049507E+08, -2.931725256493357E+08, -3.281542501208428E+07,
2459839.500000000, A.D. 2022-Sep-17 00:00:00.0000, -3.796289271851559E+08, -3.010434123326637E+08, -3.116440192977549E+07,
2459846.500000000, A.D. 2022-Sep-24 00:00:00.0000, -3.735134395743377E+08, -3.087866016602500E+08, -2.950015776692107E+07,
2459853.500000000, A.D. 2022-Oct-01 00:00:00.0000, -3.672395871936362E+08, -3.163988225185417E+08, -2.782339975288762E+07,
2459860.500000000, A.D. 2022-Oct-08 00:00:00.0000, -3.608100455402275E+08, -3.238768608967316E+08, -2.613484044917636E+07,
2459867.500000000, A.D. 2022-Oct-15 00:00:00.0000, -3.542275544051871E+08, -3.312175597837386E+08, -2.443519738189270E+07,
2459874.500000000, A.D. 2022-Oct-22 00:00:00.0000, -3.474949183712348E+08, -3.384178191758492E+08, -2.272519246238887E+07,
2459881.500000000, A.D. 2022-Oct-29 00:00:00.0000, -3.406150071933953E+08, -3.454745987880563E+08, -2.100555163758147E+07,
2459888.500000000, A.D. 2022-Nov-05 00:00:00.0000, -3.335907539645383E+08, -3.523849207269612E+08, -1.927700473879072E+07,
2459895.500000000, A.D. 2022-Nov-12 00:00:00.0000, -3.264251530306594E+08, -3.591458708559123E+08, -1.754028524539407E+07,
2459902.500000000, A.D. 2022-Nov-19 00:00:00.0000, -3.191212583740725E+08, -3.657545998048301E+08, -1.579612997545882E+07,
2459909.500000000, A.D. 2022-Nov-26 00:00:00.0000, -3.116821822012268E+08, -3.722083240219520E+08, -1.404527876032726E+07,
2459916.500000000, A.D. 2022-Dec-03 00:00:00.0000, -3.041110935693574E+08, -3.785043268802088E+08, -1.228847411993450E+07,
2459923.500000000, A.D. 2022-Dec-10 00:00:00.0000, -2.964112170080924E+08, -3.846399598208220E+08, -1.052646094201100E+07,
2459930.500000000, A.D. 2022-Dec-17 00:00:00.0000, -2.885858311134850E+08, -3.906126435595710E+08, -8.759986169735789E+06,
2459937.500000000, A.D. 2022-Dec-24 00:00:00.0000, -2.806382670069468E+08, -3.964198694211568E+08, -6.989798513305545E+06,
2459944.500000000, A.D. 2022-Dec-31 00:00:00.0000, -2.725719063027282E+08, -4.020592006932890E+08, -5.216648209394366E+06,
2459951.500000000, A.D. 2023-Jan-07 00:00:00.0000, -2.643901784620238E+08, -4.075282730370129E+08, -3.441286761055291E+06,
2459958.500000000, A.D. 2023-Jan-14 00:00:00.0000, -2.560965595009315E+08, -4.128247934551256E+08, -1.664466437024444E+06,
2459965.500000000, A.D. 2023-Jan-21 00:00:00.0000, -2.476945726967624E+08, -4.179465409904975E+08, 1.130602693183422E+05,
2459972.500000000, A.D. 2023-Jan-28 00:00:00.0000, -2.391877876251751E+08, -4.228913693502760E+08, 1.890540868764818E+06,
2459979.500000000, A.D. 2023-Feb-04 00:00:00.0000, -2.305798177379866E+08, -4.276572084285346E+08, 3.667223059411347E+06,
2459986.500000000, A.D. 2023-Feb-11 00:00:00.0000, -2.218743182779177E+08, -4.322420649202588E+08, 5.442355013016552E+06,
2459993.500000000, A.D. 2023-Feb-18 00:00:00.0000, -2.130749845940445E+08, -4.366440228487374E+08, 7.215185703120321E+06,
2460000.500000000, A.D. 2023-Feb-25 00:00:00.0000, -2.041855505953480E+08, -4.408612441672161E+08, 8.984965237544507E+06,
2460007.500000000, A.D. 2023-Mar-04 00:00:00.0000, -1.952097872403003E+08, -4.448919694155227E+08, 1.075094518736210E+07,
2460014.500000000, A.D. 2023-Mar-11 00:00:00.0000, -1.861515010342632E+08, -4.487345184310759E+08, 1.251237890974021E+07,
2460021.500000000, A.D. 2023-Mar-18 00:00:00.0000, -1.770145324883424E+08, -4.523872911637222E+08, 1.426852185637578E+07,
2460028.500000000, A.D. 2023-Mar-25 00:00:00.0000, -1.678027543372060E+08, -4.558487686414072E+08, 1.601863184515169E+07,
2460035.500000000, A.D. 2023-Apr-01 00:00:00.0000, -1.585200690921641E+08, -4.591175136929391E+08, 1.776196928836399E+07,
2460042.500000000, A.D. 2023-Apr-08 00:00:00.0000, -1.491704065456642E+08, -4.621921702022257E+08, 1.949779753417537E+07,
2460049.500000000, A.D. 2023-Apr-15 00:00:00.0000, -1.397577235645829E+08, -4.650714619990839E+08, 2.122538344522712E+07,
2460056.500000000, A.D. 2023-Apr-22 00:00:00.0000, -1.302860043630828E+08, -4.677541944381938E+08, 2.294399779890454E+07,
2460063.500000000, A.D. 2023-Apr-29 00:00:00.0000, -1.207592585205571E+08, -4.702392564142048E+08, 2.465291544243154E+07,
2460070.500000000, A.D. 2023-May-06 00:00:00.0000, -1.111815185061055E+08, -4.725256210324515E+08, 2.635141550980332E+07,
2460077.500000000, A.D. 2023-May-13 00:00:00.0000, -1.015568376874795E+08, -4.746123458286343E+08, 2.803878171700931E+07,
2460084.500000000, A.D. 2023-May-20 00:00:00.0000, -9.188928859131722E+07, -4.764985730280574E+08, 2.971430267366883E+07,
2460091.500000000, A.D. 2023-May-27 00:00:00.0000, -8.218296122195803E+07, -4.781835298733020E+08, 3.137727219052690E+07,
2460098.500000000, A.D. 2023-Jun-03 00:00:00.0000, -7.244196138181362E+07, -4.796665289939703E+08, 3.302698957918137E+07,
2460105.500000000, A.D. 2023-Jun-10 00:00:00.0000, -6.267040897006632E+07, -4.809469688322753E+08, 3.466275994030318E+07,
2460112.500000000, A.D. 2023-Jun-17 00:00:00.0000, -5.287243617143118E+07, -4.820243341848412E+08, 3.628389442694449E+07,
2460119.500000000, A.D. 2023-Jun-24 00:00:00.0000, -4.305218521602987E+07, -4.828981968053064E+08, 3.788971045788351E+07,
2460126.500000000, A.D. 2023-Jul-01 00:00:00.0000, -3.321380545848520E+07, -4.835682152395080E+08, 3.947953192523882E+07,
2460133.500000000, A.D. 2023-Jul-08 00:00:00.0000, -2.336145145151246E+07, -4.840341330702173E+08, 4.105268961674368E+07,
2460140.500000000, A.D. 2023-Jul-15 00:00:00.0000, -1.349928329139462E+07, -4.842957783993125E+08, 4.260852173794970E+07,
$$EOE